[{"OBJECT_NAME":"STARLINK-31230","OBJECT_ID":"2024-020Q","EPOCH":"2026-03-09T23:06:22.361184","MEAN_MOTION":15.30186228,"ECCENTRICITY":0.00011604,"INCLINATION":53.1616,"RA_OF_ASC_NODE":318.9995,"ARG_OF_PERICENTER":80.4084,"MEAN_ANOMALY":279.7048,"EPHEMERIS_TYPE":0,"CLASSIFICATION_TYPE":"U","NORAD_CAT_ID":58890,"ELEMENT_SET_NO":999,"REV_AT_EPOCH":11814,"BSTAR":0.00010599372,"MEAN_MOTION_DOT":2.78e-5,"MEAN_MOTION_DDOT":0},{"OBJECT_NAME":"KUIPER-00175","OBJECT_ID":"2025-301C","EPOCH":"2026-03-09T23:30:37.840032","MEAN_MOTION":15.30996371,"ECCENTRICITY":0.00022792,"INCLINATION":51.8781,"RA_OF_ASC_NODE":63.6978,"ARG_OF_PERICENTER":50.5695,"MEAN_ANOMALY":309.549,"EPHEMERIS_TYPE":0,"CLASSIFICATION_TYPE":"U","NORAD_CAT_ID":67135,"ELEMENT_SET_NO":999,"REV_AT_EPOCH":1385,"BSTAR":0.00066732304,"MEAN_MOTION_DOT":0.00019968,"MEAN_MOTION_DDOT":0}]
